NORAD_CAT_ID,OBJECT_NAME,OBJECT_TYPE,EPOCH,MEAN_MOTION,ECCENTRICITY,INCLINATION,RA_OF_ASC_NODE,ARG_OF_PERICENTER,MEAN_ANOMALY,BSTAR,MEAN_MOTION_DOT,MEAN_MOTION_DDOT,TLE_LINE0,TLE_LINE1,TLE_LINE2,SEMIMAJOR_AXIS,PERIOD,APOGEE,PERIGEE,DECAYED
55953.0,STARLINK-5889,PAYLOAD,2024-06-08 21:32:59,14.98320496,0.0003157,69.9996,75.271,267.8217,92.2581,-0.00012873,-1.628e-05,0.0,0 STARLINK-5889,1 55953U 23037AR  24160.89791284 -.00001628  00000-0 -12873-3 0  9996,2 55953  69.9996  75.2710 0003157 267.8217  92.2581 14.98320496 69129,6950.222,96.108,574.281,569.893,0.0
55953.0,STARLINK-5889,PAYLOAD,2024-06-09 11:58:11,14.9832509,0.0003183,69.9996,73.7561,267.8908,92.1886,4.2467e-05,4.14e-06,0.0,0 STARLINK-5889,1 55953U 23037AR  24161.49874755  .00000414  00000-0  42467-4 0  9991,2 55953  69.9996  73.7561 0003183 267.8908  92.1886 14.98325090 69214,6950.208,96.107,574.285,569.861,0.0
55953.0,STARLINK-5889,PAYLOAD,2024-06-09 13:34:19,14.98326665,0.0003212,69.9996,73.5876,268.0062,92.073,6.8579e-05,7.25e-06,0.0,0 STARLINK-5889,1 55953U 23037AR  24161.56550596  .00000725  00000-0  68579-4 0  9990,2 55953  69.9996  73.5876 0003212 268.0062  92.0730 14.98326665 68886,6950.203,96.107,574.301,569.836,0.0
55953.0,STARLINK-5889,PAYLOAD,2024-06-09 19:58:51,14.98337695,0.0003192,69.9996,72.9146,267.9292,92.1502,-1.36e-06,-1.09e-06,0.0,0 STARLINK-5889,1 55953U 23037AR  24161.83254204 -.00000109  00000-0 -13600-5 0  9991,2 55953  69.9996  72.9146 0003192 267.9292  92.1502 14.98337695 69265,6950.169,96.107,574.253,569.816,0.0
55953.0,STARLINK-5889,PAYLOAD,2024-06-09 23:11:07,14.98338974,0.0003199,69.9997,72.578,267.8374,92.2419,1.6249e-05,1.01e-06,0.0,0 STARLINK-5889,1 55953U 23037AR  24161.96606014  .00000101  00000-0  16249-4 0  9996,2 55953  69.9997  72.5780 0003199 267.8374  92.2419 14.98338974 68946,6950.165,96.106,574.253,569.807,0.0
55953.0,STARLINK-5889,PAYLOAD,2024-06-10 12:00:11,14.98345052,0.000321,69.9996,71.2312,267.4448,92.6343,6.4129e-05,6.73e-06,0.0,0 STARLINK-5889,1 55953U 23037AR  24162.50013127  .00000673  00000-0  64129-4 0  9998,2 55953  69.9996  71.2312 0003210 267.4448  92.6343 14.98345052 69366,6950.146,96.106,574.242,569.78,0.0
55953.0,STARLINK-5889,PAYLOAD,2024-06-10 13:36:20,14.98336305,0.0003237,69.9996,71.063,267.0779,93.001,-6.3625e-05,-8.52e-06,0.0,0 STARLINK-5889,1 55953U 23037AR  24162.56690027 -.00000852  00000-0 -63625-4 0  9995,2 55953  69.9996  71.0630 0003237 267.0779  93.0010 14.98336305 69030,6950.173,96.107,574.288,569.789,0.0
55953.0,STARLINK-5889,PAYLOAD,2024-06-10 21:37:00,14.98323952,0.0003237,69.9997,70.2214,265.9949,94.084,0.00012142,1.356e-05,0.0,0 STARLINK-5889,1 55953U 23037AR  24162.90070429  .00001356  00000-0  12142-3 0  9996,2 55953  69.9997  70.2214 0003237 265.9949  94.0840 14.98323952 69425,6950.212,96.107,574.326,569.827,0.0
55953.0,STARLINK-5889,PAYLOAD,2024-06-11 04:01:32,14.98332213,0.0003232,69.9997,69.5479,266.0851,93.9939,0.0001493,1.689e-05,0.0,0 STARLINK-5889,1 55953U 23037AR  24163.16773838  .00001689  00000-0  14930-3 0  9995,2 55953  69.9997  69.5479 0003232 266.0851  93.9939 14.98332213 69469,6950.186,96.107,574.297,569.805,0.0
55953.0,STARLINK-5889,PAYLOAD,2024-06-11 10:26:05,14.98329506,0.0003242,69.9997,68.8745,266.5465,93.5323,6.581e-05,6.92e-06,0.0,0 STARLINK-5889,1 55953U 23037AR  24163.43478149  .00000692  00000-0  65810-4 0  9999,2 55953  69.9997  68.8745 0003242 266.5465  93.5323 14.98329506 69165,6950.194,96.107,574.313,569.806,0.0
55953.0,STARLINK-5889,PAYLOAD,2024-06-12 05:39:40,14.98343045,0.0003184,69.9997,66.8547,266.3635,93.716,3.9258e-05,3.76e-06,0.0,0 STARLINK-5889,1 55953U 23037AR  24164.23589087  .00000376  00000-0  39258-4 0  9998,2 55953  69.9997  66.8547 0003184 266.3635  93.7160 14.98343045 69621,6950.153,96.106,574.23,569.805,0.0
55953.0,STARLINK-5889,PAYLOAD,2024-06-12 12:04:13,14.98334203,0.0003135,69.9997,66.1816,267.1846,92.8954,-0.00011251,-1.435e-05,0.0,0 STARLINK-5889,1 55953U 23037AR  24164.50293889 -.00001435  00000-0 -11251-3 0  9991,2 55953  69.9997  66.1816 0003135 267.1846  92.8954 14.98334203 69663,6950.18,96.107,574.224,569.866,0.0
55953.0,STARLINK-5889,PAYLOAD,2024-06-12 21:41:02,14.98330368,0.0003147,69.9998,65.1721,267.6172,92.4627,5.9531e-06,-2.2e-07,0.0,0 STARLINK-5889,1 55953U 23037AR  24164.90349777 -.00000022  00000-0  59531-5 0  9998,2 55953  69.9998  65.1721 0003147 267.6172  92.4627 14.98330368 69388,6950.192,96.107,574.244,569.87,0.0
55953.0,STARLINK-5889,PAYLOAD,2024-06-13 12:06:14,14.98329884,0.0003146,69.9997,63.6571,268.0553,92.0246,-9.8129e-05,-1.264e-05,0.0,0 STARLINK-5889,1 55953U 23037AR  24165.50433879 -.00001264  00000-0 -98129-4 0  9997,2 55953  69.9997  63.6571 0003146 268.0553  92.0246 14.98329884 69812,6950.193,96.107,574.245,569.872,0.0
55953.0,STARLINK-5889,PAYLOAD,2024-06-13 13:42:23,14.98328253,0.0003136,69.9997,63.4888,268.1801,91.8999,-0.00012475,-1.581e-05,0.0,0 STARLINK-5889,1 55953U 23037AR  24165.57110049 -.00001581  00000-0 -12475-3 0  9996,2 55953  69.9997  63.4888 0003136 268.1801  91.8999 14.98328253 69481,6950.198,96.107,574.243,569.884,0.0
55953.0,STARLINK-5889,PAYLOAD,2024-06-13 21:43:03,14.98324307,0.0003121,69.9998,62.6471,267.8001,92.2801,-5.2612e-05,-7.21e-06,0.0,0 STARLINK-5889,1 55953U 23037AR  24165.90490208 -.00000721  00000-0 -52612-4 0  9994,2 55953  69.9998  62.6471 0003121 267.8001  92.2801 14.98324307 69532,6950.21,96.107,574.245,569.906,0.0
55953.0,STARLINK-5889,PAYLOAD,2024-06-14 10:32:07,14.98330945,0.0003155,69.9998,61.3004,266.6093,93.4705,-7.6994e-05,-1.012e-05,0.0,0 STARLINK-5889,1 55953U 23037AR  24166.43897844 -.00001012  00000-0 -76994-4 0  9993,2 55953  69.9998  61.3004 0003155 266.6093  93.4705 14.98330945 69615,6950.19,96.107,574.248,569.862,0.0
55953.0,STARLINK-5889,PAYLOAD,2024-06-14 23:21:12,14.9832757,0.0003128,69.9998,59.9538,266.525,93.5551,2.6557e-05,2.24e-06,0.0,0 STARLINK-5889,1 55953U 23037AR  24166.97305859  .00000224  00000-0  26557-4 0  9994,2 55953  69.9998  59.9538 0003128 266.5250  93.5551 14.98327570 69692,6950.2,96.107,574.239,569.891,0.0
55953.0,STARLINK-5889,PAYLOAD,2024-06-15 10:34:08,14.9833075,0.0003174,69.9998,58.7751,266.0434,94.0362,-4.8579e-05,-6.73e-06,0.0,0 STARLINK-5889,1 55953U 23037AR  24167.44037781 -.00000673  00000-0 -48579-4 0  9991,2 55953  69.9998  58.7751 0003174 266.0434  94.0362 14.98330750 69764,6950.191,96.107,574.262,569.85,0.0
55953.0,STARLINK-5889,PAYLOAD,2024-06-15 23:23:13,14.98326494,0.0003162,69.9999,57.4289,267.0808,92.9989,8.5387e-05,9.26e-06,0.0,0 STARLINK-5889,1 55953U 23037AR  24167.97445833  .00000926  00000-0  85387-4 0  9997,2 55953  69.9999  57.4289 0003162 267.0808  92.9989 14.98326494 69841,6950.204,96.107,574.266,569.871,0.0
55953.0,STARLINK-5889,PAYLOAD,2024-06-16 02:35:29,14.98330188,0.0003147,69.9999,57.0921,267.0039,93.076,8.7137e-05,9.47e-06,0.0,0 STARLINK-5889,1 55953U 23037AR  24168.10797595  .00000947  00000-0  87137-4 0  9996,2 55953  69.9999  57.0921 0003147 267.0039  93.0760 14.98330188 69865,6950.192,96.107,574.245,569.87,0.0
55953.0,STARLINK-5889,PAYLOAD,2024-06-16 23:25:14,14.98330326,0.0003077,70.0,54.904,267.6105,92.4702,-8.375e-06,-1.93e-06,0.0,0 STARLINK-5889,1 55953U 23037AR  24168.97585902 -.00000193  00000-0 -83750-5 0  9991,2 55953  70.0000  54.9040 0003077 267.6105  92.4702 14.98330326 69998,6950.192,96.107,574.195,569.918,0.0
55953.0,STARLINK-5889,PAYLOAD,2024-06-17 21:51:06,14.98332273,0.000307,70.0001,52.5474,268.345,91.7358,3.8619e-05,3.68e-06,0.0,0 STARLINK-5889,1 55953U 23037AR  24169.91049583  .00000368  00000-0  38619-4 0  9991,2 55953  70.0001  52.5474 0003070 268.3450  91.7358 14.98332273 70138,6950.186,96.107,574.185,569.917,0.0
55953.0,STARLINK-5889,PAYLOAD,2024-06-18 02:39:30,14.98334371,0.0003039,70.0001,52.0427,267.6497,92.4314,5.3725e-05,5.48e-06,0.0,0 STARLINK-5889,1 55953U 23037AR  24170.11077359  .00000548  00000-0  53725-4 0  9992,2 55953  70.0001  52.0427 0003039 267.6497  92.4314 14.98334371 70501,6950.179,96.107,574.157,569.932,0.0
55953.0,STARLINK-5889,PAYLOAD,2024-06-18 09:04:03,14.98330491,0.0003023,70.0001,51.3693,268.068,92.0133,-1.6713e-05,-2.92e-06,0.0,0 STARLINK-5889,1 55953U 23037AR  24170.37781734 -.00000292  00000-0 -16713-4 0  9993,2 55953  70.0001  51.3693 0003023 268.0680  92.0133 14.98330491 70201,6950.191,96.107,574.157,569.955,0.0
55953.0,STARLINK-5889,PAYLOAD,2024-06-18 21:53:08,14.98327135,0.0003019,70.0001,50.0223,271.2159,88.8654,-4.9594e-06,-1.52e-06,0.0,0 STARLINK-5889,1 55953U 23037AR  24170.91189953 -.00000152  00000-0 -49594-5 0  9997,2 55953  70.0001  50.0223 0003019 271.2159  88.8654 14.98327135 70626,6950.202,96.107,574.165,569.968,0.0
55953.0,STARLINK-5889,PAYLOAD,2024-06-19 09:06:04,14.98329398,0.0003011,70.0001,48.8442,270.3245,89.7569,-4.0708e-06,-1.42e-06,0.0,0 STARLINK-5889,1 55953U 23037AR  24171.37921839 -.00000142  00000-0 -40708-5 0  9992,2 55953  70.0001  48.8442 0003011 270.3245  89.7569 14.98329398 70350,6950.195,96.107,574.152,569.967,0.0
55953.0,STARLINK-5889,PAYLOAD,2024-06-19 21:55:08,14.98331308,0.0002995,70.0001,47.4976,267.2773,92.8043,-2.5517e-05,-3.97e-06,0.0,0 STARLINK-5889,1 55953U 23037AR  24171.91329716 -.00000397  00000-0 -25517-4 0  9990,2 55953  70.0001  47.4976 0002995 267.2773  92.8043 14.98331308 70433,6950.189,96.107,574.135,569.972,0.0
55953.0,STARLINK-5889,PAYLOAD,2024-06-20 01:07:24,14.98332042,0.0002976,70.0002,47.1608,269.3787,90.7031,-1.9879e-05,-3.3e-06,0.0,0 STARLINK-5889,1 55953U 23037AR  24172.04681647 -.00000330  00000-0 -19879-4 0  9990,2 55953  70.0002  47.1608 0002976 269.3787  90.7031 14.98332042 70799,6950.187,96.107,574.12,569.983,0.0
55953.0,STARLINK-5889,PAYLOAD,2024-06-20 09:08:05,14.98333447,0.0003053,70.0001,46.3191,263.3156,96.7656,-2.4481e-05,-3.85e-06,0.0,0 STARLINK-5889,1 55953U 23037AR  24172.38061463 -.00000385  00000-0 -24481-4 0  9990,2 55953  70.0001  46.3191 0003053 263.3156  96.7656 14.98333447 70505,6950.182,96.107,574.169,569.925,0.0
